SARSAT 7 (NOAA 15)      
1 25338U 98030A   19252.49732875  .00000022  00000-0  27905-4 0  9996
2 25338  98.7440 273.6015 0010501   8.8789 351.2574 14.25929899109056
METEOSAT-8 (MSG-1)      
1 27509U 02040B   19252.16199054  .00000119  00000-0  00000+0 0  9993
2 27509   6.2307  55.2451 0000770  28.6716   3.7505  1.00268398 62453
GPS BIIR-08             
1 27663U 03005A   19252.15274439 -.00000047  00000-0  00000+0 0  9997
2 27663  56.2588 313.0690 0106297  32.2541 331.2964  2.00568767121704
GPS BIIR-11             
1 28190U 04009A   19252.50558354 -.00000104  00000-0  00000+0 0  9992
2 28190  56.2782  13.8297 0092237  85.5867 324.5996  2.00567248113382
GPS BIIR-12             
1 28361U 04023A   19252.27648684 -.00000043  00000-0  00000+0 0  9990
2 28361  54.0512 186.8746 0134316 232.8466 285.1895  2.00552724111466
GPS BIIR-13             
1 28474U 04045A   19252.57881681 -.00000032  00000-0  00000+0 0  9996
2 28474  54.7788  64.3365 0193315 261.6600 112.9009  2.00580323108831
SARSAT 10 (NOAA 18)     
1 28654U 05018A   19252.37560786  .00000056  00000-0  55219-4 0  9997
2 28654  99.0886 300.5534 0013377 307.5171  52.4784 14.12450298737184
GPS BIIR-14M            
1 28874U 05038A   19252.50360065 -.00000106  00000-0  00000+0 0  9996
2 28874  56.3964  11.1915 0133299 262.4144 163.5900  2.00576633102236
METEOSAT-9 (MSG-2)      
1 28912U 05049B   19252.36978648  .00000001  00000-0  00000+0 0  9990
2 28912   3.8311  71.0187 0002017  56.9158 357.0177  1.00280264 50286
GOES 13                 
1 29155U 06018A   19252.48581023  .00000086  00000-0  00000+0 0  9990
2 29155   0.0341 356.7682 0007585 244.4016 147.3574  0.99978243 48728
SARSAT 11 (METOP-A)     
1 29499U 06044A   19251.96556140 -.00000018  00000-0  11257-4 0  9991
2 29499  98.5674 302.7871 0001278  68.6889 345.0566 14.21482536668572
GPS BIIR-16M            
1 29601U 06052A   19251.46326871 -.00000049  00000-0  00000+0 0  9999
2 29601  56.2412 312.0131 0072717  62.5875 298.2126  2.00574460 93840
GPS BIIR-17M            
1 32260U 07047A   19249.28724928 -.00000015  00000-0  00000+0 0  9994
2 32260  53.1746 182.6106 0115539  45.4875 315.4433  2.00553735 87178
GPS BIIR-18M            
1 32384U 07062A   19252.04955809 -.00000105  00000-0  00000+0 0  9990
2 32384  56.4833  11.8570 0009908 119.0800 210.2411  2.00561336 85963
SARSAT 12 (NOAA 19)     
1 33591U 09005A   19252.50365723  .00000037  00000-0  45519-4 0  9993
2 33591  99.1855 245.6512 0014546 142.9100 217.3079 14.12375345545594
GOES 14                 
1 35491U 09033A   19252.47645619 -.00000116  00000-0  00000+0 0  9996
2 35491   0.3685 278.2045 0011928 294.4511 202.8192  1.00273337 37360
GOES 15                 
1 36411U 10008A   19252.50231338  .00000032  00000-0  00000+0 0  9992
2 36411   0.3748 278.9088 0003217 249.5967 232.3461  1.00278066 34879
GLONASS-K 1             
1 37372U 11009A   19252.47786988 -.00000048  00000-0  00000+0 0  9991
2 37372  65.7710  37.2066 0008363 217.9119 166.9270  2.13107469 66404
GPS BIIF-2              
1 37753U 11036A   19252.38971086 -.00000023  00000-0  00000+0 0  9992
2 37753  55.9766  68.4061 0089575  42.4702 322.5766  2.00567077 59675
GSAT0101 (GALILEO-PFM)  
1 37846U 11060A   19252.39194901 -.00000053  00000-0  00000+0 0  9999
2 37846  56.4408  49.0570 0001653  24.3346 335.6885  1.70475729 49091
GSAT0102 (GALILEO-FM2)  
1 37847U 11060B   19251.14007692 -.00000053  00000-0  00000+0 0  9992
2 37847  56.4406  49.0905 0002187 320.4601  37.2863  1.70475706 49062
LUCH 5A                 
1 37951U 11074B   19251.89984664 -.00000069  00000-0  00000-0 0  9996
2 37951   2.6478 124.9907 0003649  22.6465 330.9067  1.00272040 28388
METEOSAT-10 (MSG-3)     
1 38552U 12035B   19252.29921264  .00000044  00000-0  00000+0 0  9995
2 38552   1.1177 343.6619 0001992 170.9552 310.7878  1.00279098 26428
SARSAT 13 (METOP-B)     
1 38771U 12049A   19252.15978983 -.00000018  00000-0  11652-4 0  9990
2 38771  98.6959 310.3079 0002159  89.5480 329.5887 14.21495880361912
GPS BIIF-3              
1 38833U 12053A   19252.37292620  .00000032  00000-0  00000+0 0  9990
2 38833  53.7452 244.9572 0085060  33.3082 327.2305  2.00559811 50732
GSAT0103 (GALILEO-FM3)  
1 38857U 12055A   19248.32800696 -.00000021  00000-0  00000+0 0  9995
2 38857  54.9400 169.6626 0003388 272.4653  87.5054  1.70473805 42934
GSAT0104 (GALILEO-FM4)  
1 38858U 12055B   19251.19519956 -.00000039  00000-0  00000+0 0  9990
2 38858  54.9404 169.5828 0002237 285.0168  74.9612  1.70473859 42934
GPS BIIF-4              
1 39166U 13023A   19251.23232878 -.00000107  00000-0  00000+0 0  9995
2 39166  56.0736   7.9873 0070715  27.9888 332.3955  2.00566669 46257
INSAT-3D                
1 39216U 13038B   19252.52899201 -.00000178  00000-0  00000+0 0  9997
2 39216   0.0590 273.5021 0001638 250.0476  97.2357  1.00269666 22507
GPS BIIF-5              
1 39533U 14008A   19252.22879084  .00000036  00000-0  00000+0 0  9993
2 39533  53.8721 250.3680 0042636 196.7569 163.1171  2.00553320 40632
LUCH 5V                 
1 39727U 14023A   19252.59699715 -.00000290  00000-0  00000+0 0  9999
2 39727   1.0519 306.5975 0002375 216.2082 135.1954  1.00270624537723
GPS BIIF-6              
1 39741U 14026A   19252.50730677 -.00000024  00000-0  00000+0 0  9997
2 39741  55.9553  67.9273 0015825 291.2433  68.6333  2.00566362 38928
GPS BIIF-7              
1 40105U 14045A   19252.10078537 -.00000041  00000-0  00000+0 0  9999
2 40105  54.5778 187.2321 0011445  97.4996 262.6135  2.00571596 37360
GSAT0201 (GALILEO 5)    
1 40128U 14050A   19250.88401603 -.00000118  00000-0  00000+0 0  9992
2 40128  50.5774  12.6916 1665838  90.2603 288.7444  1.85519406 34358
GSAT0202 (GALILEO 6)    
1 40129U 14050B   19251.68780291 -.00000119  00000-0  00000+0 0  9996
2 40129  50.6195  11.6859 1664644  91.1349 287.8877  1.85520154 34568
GPS BIIF-8              
1 40294U 14068A   19251.97394418 -.00000037  00000-0  00000+0 0  9991
2 40294  55.2116 128.1190 0023596  37.6724 322.5667  2.00558694 35588
GLONASS-K 2             
1 40315U 14075A   19251.61362316  .00000049  00000-0  00000+0 0  9998
2 40315  64.0079 276.7586 0017847 210.6896 333.0497  2.13098691 37144
GPS BIIF-9              
1 40534U 15013A   19249.61638130 -.00000051  00000-0  00000+0 0  9995
2 40534  54.4448 306.5828 0038312   3.9435 356.1469  2.00564697 32604
GSAT0203 (GALILEO 7)    
1 40544U 15017A   19250.41226021 -.00000054  00000-0  00000+0 0  9995
2 40544  56.2317  49.2852 0002712 216.3243 143.6743  1.70475099 27678
GSAT0204 (GALILEO 8)    
1 40545U 15017B   19251.95378928 -.00000053  00000-0  00000+0 0  9999
2 40545  56.2397  49.2571 0002853 162.8266 197.1994  1.70475425 27700
GPS BIIF-10             
1 40730U 15033A   19251.27700328 -.00000108  00000-0  00000+0 0  9992
2 40730  55.5964   7.2879 0044662 343.9907  15.8759  2.00578355 30395
METEOSAT-11 (MSG-4)     
1 40732U 15034A   19252.36917582 -.00000022  00000-0  00000+0 0  9993
2 40732   0.8775 252.7308 0002337 250.0629 338.5261  1.00278674 15246
GSAT0205 (GALILEO 9)    
1 40889U 15045A   19251.61047231 -.00000001  00000-0  00000+0 0  9997
2 40889  56.3785 289.8796 0002180 325.7831  34.2722  1.70475245 24847
GSAT0206 (GALILEO 10)   
1 40890U 15045B   19250.65695997 -.00000004  00000-0  00000+0 0  9993
2 40890  56.3783 289.9024 0001866 275.3583  84.6864  1.70475229 24855
GPS BIIF-11             
1 41019U 15062A   19251.82023173 -.00000038  00000-0  00000+0 0  9994
2 41019  55.2115 127.9426 0049016 205.9209 153.9056  2.00564696 28225
ELEKTRO-L 2             
1 41105U 15074A   19252.52785795 -.00000119  00000-0  00000+0 0  9996
2 41105   0.5344 104.0213 0001261  23.4252 126.8848  1.00271144 13728
GSAT0209 (GALILEO 12)   
1 41174U 15079A   19250.24206467 -.00000035  00000-0  00000+0 0  9995
2 41174  54.9541 169.3052 0005039 313.3075  46.6556  1.70472924 23162
GSAT0208 (GALILEO 11)   
1 41175U 15079B   19249.28870607 -.00000029  00000-0  00000+0 0  9994
2 41175  54.9524 169.3313 0004256 314.6109  45.3620  1.70472959 23151
GPS BIIF-12             
1 41328U 16007A   19251.91174934 -.00000039  00000-0  00000+0 0  9990
2 41328  54.8198 187.6511 0033696 220.0177 139.7172  2.00569057 26282
GSAT0211 (GALILEO 14)   
1 41549U 16030A   19249.41087066 -.00000008  00000-0  00000+0 0  9998
2 41549  56.5204 289.7638 0003947 273.2528  86.7646  1.70474980 20449
GSAT0210 (GALILEO 13)   
1 41550U 16030B   19250.87707933 -.00000002  00000-0  00000+0 0  9998
2 41550  56.5189 289.7252 0004565 249.4609 110.5569  1.70475034 20460
INSAT-3DR               
1 41752U 16054A   19252.52742177 -.00000099  00000-0  00000+0 0  9997
2 41752   0.0408 102.9287 0011116 162.8842 346.2993  1.00272119 11015
GSAT0207 (GALILEO 15)   
1 41859U 16069A   19249.94858339 -.00000034  00000-0  00000+0 0  9990
2 41859  54.6120 169.7471 0004718 301.4694  58.4895  1.70472932 17438
GSAT0212 (GALILEO 16)   
1 41860U 16069B   19248.04228508 -.00000019  00000-0  00000+0 0  9994
2 41860  54.6096 169.7997 0004053 322.3057  37.6754  1.70472819 17428
GSAT0213 (GALILEO 17)   
1 41861U 16069C   19250.16804960 -.00000035  00000-0  00000-0 0  9992
2 41861  54.6122 169.7438 0003615 281.5693  78.3945  1.70473073 17465
GSAT0214 (GALILEO 18)   
1 41862U 16069D   19250.31498907 -.00000036  00000-0  00000+0 0  9990
2 41862  54.6103 169.7356 0002926 289.9937  69.9789  1.70472864 17459
GOES 16                 
1 41866U 16071A   19252.48243743 -.00000271  00000-0  00000+0 0  9994
2 41866   0.0101  61.7896 0000599 125.5174 259.4079  1.00271683 10313
GSAT-17                 
1 42815U 17040B   19252.38775707 -.00000279  00000-0  00000+0 0  9993
2 42815   0.0249 147.0340 0003355  83.9801 350.2016  1.00267476  8076
GSAT0215 (GALILEO 19)   
1 43055U 17079A   19250.21688754 -.00000005  00000-0  00000+0 0  9994
2 43055  56.4946 289.5901 0004035 241.8564 118.1673  1.70474146 10797
GSAT0216 (GALILEO 20)   
1 43056U 17079B   19252.26962174  .00000002  00000-0  00000+0 0  9999
2 43056  56.4934 289.5334 0005816 251.7306 108.2774  1.70474283 10814
GSAT0217 (GALILEO 21)   
1 43057U 17079C   19250.14326559 -.00000005  00000-0  00000+0 0  9990
2 43057  56.4929 289.5928 0005087 258.3434 101.6638  1.70474284 10797
GSAT0218 (GALILEO 22)   
1 43058U 17079D   19248.60347186 -.00000011  00000-0  00000+0 0  9995
2 43058  56.4945 289.6323 0006291 249.6519 110.3418  1.70474182 10768
GOES 17                 
1 43226U 18022A   19252.48528682  .00000075  00000-0  00000+0 0  9993
2 43226   0.0320  28.8396 0000496 103.0344 253.8650  1.00273250  5648
GSAT0221 (GALILEO 25)   
1 43564U 18060A   19252.02489493 -.00000053  00000-0  00000+0 0  9993
2 43564  56.6236  48.7936 0002810 249.2990 110.6863  1.70476131  7018
GSAT0222 (GALILEO 26)   
1 43565U 18060B   19250.48504456 -.00000054  00000-0  00000-0 0  9991
2 43565  56.6244  48.8347 0002342 261.7973  98.1923  1.70476095  7022
GSAT0219 (GALILEO 23)   
1 43566U 18060C   19251.29165911 -.00000053  00000-0  00000+0 0  9999
2 43566  56.6242  48.8142 0002170 249.5681 110.4247  1.70476005  7010
GSAT0220 (GALILEO 24)   
1 43567U 18060D   19252.09810097 -.00000053  00000-0  00000+0 0  9991
2 43567  56.6261  48.7921 0002202 250.7462 109.2453  1.70476066  7004
BEIDOU-3 M13            
1 43622U 18072A   19251.68383647 -.00000057  00000-0  00000+0 0  9990
2 43622  55.0485 145.4439 0006364 290.8709 351.1360  1.86232082  6580
BEIDOU-3 M14            
1 43623U 18072B   19252.09654459 -.00000054  00000-0  00000+0 0  9996
2 43623  55.0502 145.4201 0005665 317.2397 331.6259  1.86232141  6595
